{"type": "FeatureCollection", "features": [ {"type": "Feature", "properties": {"norad_id": 32260, "name": "GPS BIIRM-4 (PRN 15)", "group": "gnss", "lat": -53.784685226423605, "lon": 4.372667392248853, "alt_km": 20618.049737949714, "timestamp": "2025-12-15T14:57:58.059594+00:00", "meta": {"OBJECT_NAME": "GPS BIIRM-4 (PRN 15)", "OBJECT_ID": "2007-047A", "EPOCH": "2025-12-13T18:00:56.680128", "MEAN_MOTION": 2.00564495, "ECCENTRICITY": 0.0164139, "INCLINATION": 53.9559, "RA_OF_ASC_NODE": 87.7167, "ARG_OF_PERICENTER": 85.2596, "MEAN_ANOMALY": 276.6041, "EPHEMERIS_TYPE": 0, "CLASSIFICATION_TYPE": "U", "NORAD_CAT_ID": 32260, "ELEMENT_SET_NO": 999, "REV_AT_EPOCH": 13309, "BSTAR": 0, "MEAN_MOTION_DOT": -4.4e-07, "MEAN_MOTION_DDOT": 0}, "tle": {"line1": "1 32260U 07047A   25347.75065602 -.00000044  00000+0  00000+0 0  9990", "line2": "2 32260  53.9559  87.7167 0164139  85.2596 276.6041  2.00564495133093"}}, "geometry": {"type": "Point", "coordinates": [4.372667392248853, -53.784685226423605]}}, {"type": "Feature", "properties": {"norad_id": 32275, "name": "COSMOS 2433 (720)", "group": "gnss", "lat": 32.30019430528783, "lon": 125.48846748375936, "alt_km": 19130.63333656289, "timestamp": "2025-12-15T14:57:58.059606+00:00", "meta": {"OBJECT_NAME": "COSMOS 2433 (720)", "OBJECT_ID": "2007-052A", "EPOCH": "2025-12-14T11:55:54.844320", "MEAN_MOTION": 2.13103937, "ECCENTRICITY": 0.00054818, "INCLINATION": 65.6821, "RA_OF_ASC_NODE": 322.1464, "ARG_OF_PERICENTER": 253.0892, "MEAN_ANOMALY": 106.8496, "EPHEMERIS_TYPE": 0, "CLASSIFICATION_TYPE": "U", "NORAD_CAT_ID": 32275, "ELEMENT_SET_NO": 999, "REV_AT_EPOCH": 14112, "BSTAR": 0, "MEAN_MOTION_DOT": -6.4e-07, "MEAN_MOTION_DDOT": 0}, "tle": {"line1": "1 32275U 07052A   25348.49716255 -.00000064  00000+0  00000+0 0  9993", "line2": "2 32275  65.6821 322.1464 0005481 253.0892 106.8496  2.13103937141120"}}, "geometry": {"type": "Point", "coordinates": [125.48846748375936, 32.30019430528783]}}, {"type": "Feature", "properties": {"norad_id": 32276, "name": "COSMOS 2432 (719)", "group": "gnss", "lat": 65.65175701349547, "lon": 49.00487620667205, "alt_km": 19143.66146676232, "timestamp": "2025-12-15T14:57:58.059617+00:00", "meta": {"OBJECT_NAME": "COSMOS 2432 (719)", "OBJECT_ID": "2007-052B", "EPOCH": "2025-12-14T13:36:30.109824", "MEAN_MOTION": 2.13103074, "ECCENTRICITY": 0.00112617, "INCLINATION": 65.6978, "RA_OF_ASC_NODE": 322.2682, "ARG_OF_PERICENTER": 312.3582, "MEAN_ANOMALY": 45.6283, "EPHEMERIS_TYPE": 0, "CLASSIFICATION_TYPE": "U", "NORAD_CAT_ID": 32276, "ELEMENT_SET_NO": 999, "REV_AT_EPOCH": 14114, "BSTAR": 0, "MEAN_MOTION_DOT": -6.4e-07, "MEAN_MOTION_DDOT": 0}, "tle": {"line1": "1 32276U 07052B   25348.56701516 -.00000064  00000+0  00000+0 0  9996", "line2": "2 32276  65.6978 322.2682 0011261 312.3582  45.6283  2.13103074141143"}}, "geometry": {"type": "Point", "coordinates": [49.00487620667205, 65.65175701349547]}}, {"type": "Feature", "properties": {"norad_id": 32384, "name": "GPS BIIRM-5 (PRN 29)", "group": "gnss", "lat": 34.23405969054013, "lon": -50.25876850893663, "alt_km": 20218.324312195167, "timestamp": "2025-12-15T14:57:58.059643+00:00", "meta": {"OBJECT_NAME": "GPS BIIRM-5 (PRN 29)", "OBJECT_ID": "2007-062A", "EPOCH": "2025-12-14T07:22:44.014368", "MEAN_MOTION": 2.00577433, "ECCENTRICITY": 0.00322391, "INCLINATION": 55.1808, "RA_OF_ASC_NODE": 281.583, "ARG_OF_PERICENTER": 162.4014, "MEAN_ANOMALY": 10.7862, "EPHEMERIS_TYPE": 0, "CLASSIFICATION_TYPE": "U", "NORAD_CAT_ID": 32384, "ELEMENT_SET_NO": 999, "REV_AT_EPOCH": 13180, "BSTAR": 0, "MEAN_MOTION_DOT": -7.8e-07, "MEAN_MOTION_DDOT": 0}, "tle": {"line1": "1 32384U 07062A   25348.30745387 -.00000078  00000+0  00000+0 0  9998", "line2": "2 32384  55.1808 281.5830 0032239 162.4014  10.7862  2.00577433131801"}}, "geometry": {"type": "Point", "coordinates": [-50.25876850893663, 34.23405969054013]}}, {"type": "Feature", "properties": {"norad_id": 32393, "name": "COSMOS 2434 (721)", "group": "gnss", "lat": 30.78661388684717, "lon": -145.2277802310005, "alt_km": 19117.605304530214, "timestamp": "2025-12-15T14:57:58.059655+00:00", "meta": {"OBJECT_NAME": "COSMOS 2434 (721)", "OBJECT_ID": "2007-065A", "EPOCH": "2025-12-10T15:35:17.035872", "MEAN_MOTION": 2.13101152, "ECCENTRICITY": 0.0004304, "INCLINATION": 64.3147, "RA_OF_ASC_NODE": 198.2738, "ARG_OF_PERICENTER": 71.148, "MEAN_ANOMALY": 107.63, "EPHEMERIS_TYPE": 0, "CLASSIFICATION_TYPE": "U", "NORAD_CAT_ID": 32393, "ELEMENT_SET_NO": 999, "REV_AT_EPOCH": 13975, "BSTAR": 0, "MEAN_MOTION_DOT": 4.8e-07, "MEAN_MOTION_DDOT": 0}, "tle": {"line1": "1 32393U 07065A   25344.64950273  .00000048  00000+0  00000+0 0  9992", "line2": "2 32393  64.3147 198.2738 0004304  71.1480 107.6300  2.13101152139755"}}, "geometry": {"type": "Point", "coordinates": [-145.2277802310005, 30.78661388684717]}}, {"type": "Feature", "properties": {"norad_id": 32395, "name": "COSMOS 2436 (723)", "group": "gnss", "lat": 10.944424099874826, "lon": 12.841374066390827, "alt_km": 19171.286858131913, "timestamp": "2025-12-15T14:57:58.059668+00:00", "meta": {"OBJECT_NAME": "COSMOS 2436 (723)", "OBJECT_ID": "2007-065C", "EPOCH": "2025-12-08T02:01:11.627904", "MEAN_MOTION": 2.13100022, "ECCENTRICITY": 0.00177472, "INCLINATION": 64.3236, "RA_OF_ASC_NODE": 198.4308, "ARG_OF_PERICENTER": 9.2257, "MEAN_ANOMALY": 134.6131, "EPHEMERIS_TYPE": 0, "CLASSIFICATION_TYPE": "U", "NORAD_CAT_ID": 32395, "ELEMENT_SET_NO": 999, "REV_AT_EPOCH": 13965, "BSTAR": 0, "MEAN_MOTION_DOT": 5.1e-07, "MEAN_MOTION_DDOT": 0}, "tle": {"line1": "1 32395U 07065C   25342.08416236  .00000051  00000+0  00000+0 0  9990", "line2": "2 32395  64.3236 198.4308 0017747   9.2257 134.6131  2.13100022139656"}}, "geometry": {"type": "Point", "coordinates": [12.841374066390827, 10.944424099874826]}}, {"type": "Feature", "properties": {"norad_id": 32711, "name": "GPS BIIRM-6 (PRN 07)", "group": "gnss", "lat": -23.90878845485524, "lon": 138.77943467151607, "alt_km": 20128.638803927784, "timestamp": "2025-12-15T14:57:58.059681+00:00", "meta": {"OBJECT_NAME": "GPS BIIRM-6 (PRN 07)", "OBJECT_ID": "2008-012A", "EPOCH": "2025-12-14T16:02:03.484896", "MEAN_MOTION": 2.0056573, "ECCENTRICITY": 0.0202527, "INCLINATION": 54.4772, "RA_OF_ASC_NODE": 157.2959, "ARG_OF_PERICENTER": 244.9733, "MEAN_ANOMALY": 112.9236, "EPHEMERIS_TYPE": 0, "CLASSIFICATION_TYPE": "U", "NORAD_CAT_ID": 32711, "ELEMENT_SET_NO": 999, "REV_AT_EPOCH": 13005, "BSTAR": 0, "MEAN_MOTION_DOT": 9.8e-07, "MEAN_MOTION_DDOT": 0}, "tle": {"line1": "1 32711U 08012A   25348.66809589  .00000098  00000+0  00000+0 0  9993", "line2": "2 32711  54.4772 157.2959 0202527 244.9733 112.9236  2.00565730130054"}}, "geometry": {"type": "Point", "coordinates": [138.77943467151607, -23.90878845485524]}}, {"type": "Feature", "properties": {"norad_id": 35752, "name": "GPS BIIRM-8 (PRN 05)", "group": "gnss", "lat": -10.64400521724731, "lon": 27.430814809264938, "alt_km": 20194.099793445268, "timestamp": "2025-12-15T14:57:58.059693+00:00", "meta": {"OBJECT_NAME": "GPS BIIRM-8 (PRN 05)", "OBJECT_ID": "2009-043A", "EPOCH": "2025-12-14T15:32:04.041600", "MEAN_MOTION": 2.00565642, "ECCENTRICITY": 0.00517621, "INCLINATION": 56.0923, "RA_OF_ASC_NODE": 34.7078, "ARG_OF_PERICENTER": 81.8798, "MEAN_ANOMALY": 280.9533, "EPHEMERIS_TYPE": 0, "CLASSIFICATION_TYPE": "U", "NORAD_CAT_ID": 35752, "ELEMENT_SET_NO": 999, "REV_AT_EPOCH": 11966, "BSTAR": 0, "MEAN_MOTION_DOT": -9.3e-07, "MEAN_MOTION_DDOT": 0}, "tle": {"line1": "1 35752U 09043A   25348.64726900 -.00000093  00000+0  00000+0 0  9995", "line2": "2 35752  56.0923  34.7078 0051762  81.8798 280.9533  2.00565642119663"}}, "geometry": {"type": "Point", "coordinates": [27.430814809264938, -10.64400521724731]}}, {"type": "Feature", "properties": {"norad_id": 36111, "name": "COSMOS 2456 (730)", "group": "gnss", "lat": -10.695823933286585, "lon": -97.68420147111433, "alt_km": 19133.916749925123, "timestamp": "2025-12-15T14:57:58.059707+00:00", "meta": {"OBJECT_NAME": "COSMOS 2456 (730)", "OBJECT_ID": "2009-070A", "EPOCH": "2025-12-14T09:56:44.941056", "MEAN_MOTION": 2.13103612, "ECCENTRICITY": 0.00031175, "INCLINATION": 64.9016, "RA_OF_ASC_NODE": 77.2804, "ARG_OF_PERICENTER": 298.1789, "MEAN_ANOMALY": 45.9889, "EPHEMERIS_TYPE": 0, "CLASSIFICATION_TYPE": "U", "NORAD_CAT_ID": 36111, "ELEMENT_SET_NO": 999, "REV_AT_EPOCH": 12448, "BSTAR": 0, "MEAN_MOTION_DOT": -5.7e-07, "MEAN_MOTION_DDOT": 0}, "tle": {"line1": "1 36111U 09070A   25348.41440904 -.00000057  00000+0  00000+0 0  9997", "line2": "2 36111  64.9016  77.2804 0003117 298.1789  45.9889  2.13103612124485"}}, "geometry": {"type": "Point", "coordinates": [-97.68420147111433, -10.695823933286585]}}, {"type": "Feature", "properties": {"norad_id": 36112, "name": "COSMOS 2457 (733)", "group": "gnss", "lat": -34.80165538137487, "lon": 58.09891933734183, "alt_km": 19145.966771417152, "timestamp": "2025-12-15T14:57:58.059718+00:00", "meta": {"OBJECT_NAME": "COSMOS 2457 (733)", "OBJECT_ID": "2009-070B", "EPOCH": "2025-12-13T07:58:58.732608", "MEAN_MOTION": 2.13100875, "ECCENTRICITY": 0.00047033, "INCLINATION": 64.8861, "RA_OF_ASC_NODE": 77.165, "ARG_OF_PERICENTER": 158.447, "MEAN_ANOMALY": 204.9439, "EPHEMERIS_TYPE": 0, "CLASSIFICATION_TYPE": "U", "NORAD_CAT_ID": 36112, "ELEMENT_SET_NO": 999, "REV_AT_EPOCH": 12447, "BSTAR": 0, "MEAN_MOTION_DOT": -5.1e-07, "MEAN_MOTION_DDOT": 0}, "tle": {"line1": "1 36112U 09070B   25347.33262422 -.00000051  00000+0  00000+0 0  9999", "line2": "2 36112  64.8861  77.1650 0004703 158.4470 204.9439  2.13100875124473"}}, "geometry": {"type": "Point", "coordinates": [58.09891933734183, -34.80165538137487]}}]}